[{"OBJECT_NAME":"STARLINK-5969","OBJECT_ID":"2023-042H","EPOCH":"2026-03-08T23:59:54.136896","MEAN_MOTION":15.02533107,"ECCENTRICITY":0.00017063,"INCLINATION":43.0051,"RA_OF_ASC_NODE":60.1124,"ARG_OF_PERICENTER":263.6651,"MEAN_ANOMALY":96.3997,"EPHEMERIS_TYPE":0,"CLASSIFICATION_TYPE":"U","NORAD_CAT_ID":55993,"ELEMENT_SET_NO":999,"REV_AT_EPOCH":16280,"BSTAR":3.2521717e-5,"MEAN_MOTION_DOT":2.36e-6,"MEAN_MOTION_DDOT":0},{"OBJECT_NAME":"OBJECT G","OBJECT_ID":"2025-292G","EPOCH":"2026-03-09T22:41:34.708704","MEAN_MOTION":15.05879657,"ECCENTRICITY":0.00150455,"INCLINATION":97.6425,"RA_OF_ASC_NODE":145.7524,"ARG_OF_PERICENTER":352.95,"MEAN_ANOMALY":7.1513,"EPHEMERIS_TYPE":0,"CLASSIFICATION_TYPE":"U","NORAD_CAT_ID":66999,"ELEMENT_SET_NO":999,"REV_AT_EPOCH":1351,"BSTAR":0.00047153864,"MEAN_MOTION_DOT":6.807e-5,"MEAN_MOTION_DDOT":0}]
